QIANFAN-33              
1 61566U 24185Q   25336.30021489  .00000512  00000+0  36065-3 0  9990
2 61566  88.9802  79.9698 0006841  16.4577 343.6820 13.96538995 67702
QIANFAN-34              
1 61567U 24185R   25336.23707726  .00000628  00000+0  40094-3 0  9993
2 61567  88.9780  79.5548 0005870  22.3816 337.7620 14.02291823 67886
QIANFAN-35              
1 61568U 24185S   25336.25624582  .00001213  00000+0  48404-3 0  9998
2 61568  88.9805  78.1082 0005176 336.8477  23.2484 14.27938011 68686
QIANFAN-36              
1 61569U 24185T   25336.26020963  .00000233  00000+0  31811-3 0  9998
2 61569  88.9786  82.1344 0007663  80.4172 279.7847 13.55582989 66507
QIANFAN-37              
1 62238U 24232B   25336.25313983  .00000157  00000+0  22467-3 0  9993
2 62238  89.0031  42.3872 0002627 111.6749 248.4683 13.50975055 97759
QIANFAN-38              
1 62239U 24232C   25336.20375832  .00000138  00000+0  19475-3 0  9994
2 62239  89.0037  42.3072 0013681 218.6455 141.3718 13.50978012 97804
QIANFAN-39              
1 62240U 24232D   25336.24441150  .00000680  00000+0  28175-3 0  9996
2 62240  89.0028  38.5091 0018426 111.6887 248.6270 14.25376097 99890
QIANFAN-40              
1 62241U 24232E   25336.23667083  .00000162  00000+0  23320-3 0  9993
2 62241  89.0065  41.8856 0012469 226.5603 133.4511 13.50977738 98176
